{
  "type": "FeatureCollection",
  "metadata": {
    "title": "Schematic Lithostratigraphic Map of India - Archean Basement and Precambrian Supergroups",
    "accuracy_disclaimer": "GEOMETRY IS SCHEMATIC/APPROXIMATE. Polygons are illustrative extents derived from published basin/craton descriptions, NOT digitized from official GSI survey maps. Do not use for precise spatial analysis, land-use, or engineering decisions. Suitable for general public education and conceptual visualization only.",
    "coordinate_system": "WGS84 (EPSG:4326)",
    "age_reference": "Numeric age ranges (age_min_ma = older bound, age_max_ma = younger bound, both in millions of years before present) follow standard geologic timescale usage (ICS International Chronostratigraphic Chart) combined with basin-specific literature ages. Ranges for Vindhyan, Bhima, and Chhattisgarh Supergroups remain actively debated among researchers - see age_uncertain flag.",
    "recommended_use": "Time-slider filtering: show a feature when slider_value is between age_min_ma and age_max_ma. Pair with a real basemap (e.g. OneGeology WMS) for visual context."
  },
  "features": [
    {
      "type": "Feature",
      "properties": {
        "name": "Peninsular Gneissic Complex (Dharwar Craton basement)",
        "unit_type": "basement_complex",
        "classical_division": "Archaean Group",
        "age_min_ma": 3400,
        "age_max_ma": 2500,
        "age_uncertain": false,
        "region": "Karnataka, southern Andhra Pradesh"
      },
      "geometry": {
        "type": "Polygon",
        "coordinates": [[[74.0,10.5],[80.0,11.0],[80.5,17.0],[74.0,17.5],[73.5,14.0],[74.0,10.5]]]
      }
    },
    {
      "type": "Feature",
      "properties": {
        "name": "Bastar Gneissic Complex",
        "unit_type": "basement_complex",
        "classical_division": "Archaean Group",
        "age_min_ma": 3200,
        "age_max_ma": 2500,
        "age_uncertain": false,
        "region": "Chhattisgarh, Odisha"
      },
      "geometry": {
        "type": "Polygon",
        "coordinates": [[[80.0,18.0],[83.0,18.5],[83.2,21.5],[80.2,21.8],[79.7,20.0],[80.0,18.0]]]
      }
    },
    {
      "type": "Feature",
      "properties": {
        "name": "Bundelkhand Gneissic Complex",
        "unit_type": "basement_complex",
        "classical_division": "Archaean Group",
        "age_min_ma": 2900,
        "age_max_ma": 2500,
        "age_uncertain": false,
        "region": "Madhya Pradesh, Uttar Pradesh"
      },
      "geometry": {
        "type": "Polygon",
        "coordinates": [[[78.5,24.5],[81.5,24.8],[81.3,26.0],[78.3,25.8],[78.2,25.0],[78.5,24.5]]]
      }
    },
    {
      "type": "Feature",
      "properties": {
        "name": "Singhbhum Craton (Older Metamorphic Group / Singhbhum Granite)",
        "unit_type": "basement_complex",
        "classical_division": "Archaean Group",
        "age_min_ma": 3500,
        "age_max_ma": 3100,
        "age_uncertain": false,
        "region": "Jharkhand, Odisha"
      },
      "geometry": {
        "type": "Polygon",
        "coordinates": [[[85.0,21.5],[87.0,21.8],[86.8,23.2],[84.8,23.0],[84.6,22.0],[85.0,21.5]]]
      }
    },
    {
      "type": "Feature",
      "properties": {
        "name": "Chhotanagpur Granite Gneissic Complex (CGGC)",
        "unit_type": "basement_complex",
        "classical_division": "Archaean Group",
        "age_min_ma": 1600,
        "age_max_ma": 950,
        "age_uncertain": true,
        "region": "Jharkhand, Bihar, West Bengal",
        "note": "CGGC is polyphase/reworked; age range shown reflects dominant granulite-facies events, not a single simple crystallization age"
      },
      "geometry": {
        "type": "Polygon",
        "coordinates": [[[84.0,23.0],[87.5,23.5],[87.0,25.0],[83.5,24.5],[83.3,23.5],[84.0,23.0]]]
      }
    },
    {
      "type": "Feature",
      "properties": {
        "name": "Banded Gneissic Complex (BGC) / Bhilwara Supergroup basement",
        "unit_type": "basement_complex",
        "classical_division": "Archaean Group",
        "age_min_ma": 2500,
        "age_max_ma": 2000,
        "age_uncertain": false,
        "region": "Rajasthan (basement to Aravalli-Delhi belt)"
      },
      "geometry": {
        "type": "Polygon",
        "coordinates": [[[72.5,24.0],[76.0,24.5],[75.5,28.0],[72.0,27.0],[71.8,25.0],[72.5,24.0]]]
      }
    },
    {
      "type": "Feature",
      "properties": {
        "name": "Dharwar Supergroup",
        "unit_type": "supergroup",
        "classical_division": "Archaean Group (Dharwar System)",
        "age_min_ma": 3000,
        "age_max_ma": 2500,
        "age_uncertain": false,
        "region": "Western & Eastern Dharwar Craton, Karnataka",
        "groups": ["Sargur Group", "Bababudan Group", "Chitradurga Group"]
      },
      "geometry": {
        "type": "Polygon",
        "coordinates": [[[74.5,12.0],[78.0,12.5],[78.3,15.5],[76.0,16.5],[74.7,15.0],[74.5,12.0]]]
      }
    },
    {
      "type": "Feature",
      "properties": {
        "name": "Aravalli Supergroup",
        "unit_type": "supergroup",
        "classical_division": "Purana Group",
        "age_min_ma": 2200,
        "age_max_ma": 1800,
        "age_uncertain": false,
        "region": "Aravalli Range, Rajasthan",
        "groups": ["Lower Aravalli Group", "Udaipur Group", "Jharol Group"]
      },
      "geometry": {
        "type": "Polygon",
        "coordinates": [[[73.0,23.8],[75.0,23.8],[75.3,25.5],[73.5,25.8],[72.7,24.5],[73.0,23.8]]]
      }
    },
    {
      "type": "Feature",
      "properties": {
        "name": "Mahakoshal Supergroup",
        "unit_type": "supergroup",
        "rank_note": "Conventionally ranked as Mahakoshal Group, not Supergroup",
        "classical_division": "Purana Group",
        "age_min_ma": 2000,
        "age_max_ma": 1800,
        "age_uncertain": false,
        "region": "Son Valley / Central Indian Tectonic Zone, MP-UP border",
        "groups": ["Mahakoshal Group"]
      },
      "geometry": {
        "type": "Polygon",
        "coordinates": [[[80.5,23.8],[83.0,24.3],[82.8,24.8],[80.3,24.3],[80.5,23.8]]]
      }
    },
    {
      "type": "Feature",
      "properties": {
        "name": "Cuddapah Supergroup",
        "unit_type": "supergroup",
        "classical_division": "Purana Group (Cuddapah System)",
        "age_min_ma": 1900,
        "age_max_ma": 1000,
        "age_uncertain": false,
        "region": "Cuddapah Basin, Andhra Pradesh",
        "groups": ["Papaghni Group", "Chitravati Group", "Nallamalai Group"]
      },
      "geometry": {
        "type": "Polygon",
        "coordinates": [[[78.0,13.5],[79.5,13.8],[79.8,15.5],[78.3,16.0],[77.8,14.5],[78.0,13.5]]]
      }
    },
    {
      "type": "Feature",
      "properties": {
        "name": "Delhi Supergroup",
        "unit_type": "supergroup",
        "classical_division": "Purana Group",
        "age_min_ma": 1700,
        "age_max_ma": 1000,
        "age_uncertain": false,
        "region": "Aravalli Range, Rajasthan (overlies Aravalli Supergroup)",
        "groups": ["Alwar Group", "Ajabgarh Group"]
      },
      "geometry": {
        "type": "Polygon",
        "coordinates": [[[74.5,25.5],[77.0,27.5],[76.0,28.5],[74.0,26.5],[74.5,25.5]]]
      }
    },
    {
      "type": "Feature",
      "properties": {
        "name": "Kaladgi Supergroup",
        "unit_type": "supergroup",
        "classical_division": "Purana Group",
        "age_min_ma": 1800,
        "age_max_ma": 1300,
        "age_uncertain": false,
        "region": "Bijapur-Belgaum-Bagalkot area, Karnataka",
        "groups": ["Bagalkot Group", "Badami Group"]
      },
      "geometry": {
        "type": "Polygon",
        "coordinates": [[[74.8,15.7],[76.3,15.9],[76.2,17.0],[74.9,16.8],[74.8,15.7]]]
      }
    },
    {
      "type": "Feature",
      "properties": {
        "name": "Chhattisgarh Supergroup",
        "unit_type": "supergroup",
        "classical_division": "Purana Group",
        "age_min_ma": 1500,
        "age_max_ma": 1000,
        "age_uncertain": true,
        "region": "Chhattisgarh Basin (Hirri & Baradwar sub-basins), Chhattisgarh/Odisha",
        "groups": ["Singhora Group", "Chandarpur Group", "Raipur Group", "Kharsiya Group"]
      },
      "geometry": {
        "type": "Polygon",
        "coordinates": [[[80.8,20.0],[82.5,20.2],[82.7,22.0],[81.0,22.2],[80.6,21.0],[80.8,20.0]]]
      }
    },
    {
      "type": "Feature",
      "properties": {
        "name": "Vindhyan Supergroup",
        "unit_type": "supergroup",
        "classical_division": "Purana Group (Vindhyan System)",
        "age_min_ma": 1700,
        "age_max_ma": 650,
        "age_uncertain": true,
        "region": "Madhya Pradesh, Uttar Pradesh, Rajasthan",
        "groups": ["Semri Group", "Kaimur Group", "Rewa Group", "Bhander Group"],
        "note": "Age of upper Vindhyan remains actively debated (some workers argue for a much older, entirely Proterozoic age with no Cambrian overlap)"
      },
      "geometry": {
        "type": "Polygon",
        "coordinates": [[[77.0,23.5],[82.5,24.0],[82.0,25.5],[76.5,25.0],[76.8,24.0],[77.0,23.5]]]
      }
    },
    {
      "type": "Feature",
      "properties": {
        "name": "Bhima Supergroup",
        "unit_type": "supergroup",
        "rank_note": "Conventionally ranked as Bhima Group - smallest Proterozoic basin in India",
        "classical_division": "Purana Group",
        "age_min_ma": 1000,
        "age_max_ma": 600,
        "age_uncertain": true,
        "region": "Kalaburagi/Yadgir (Karnataka) and Mahbubnagar/Rangareddy (Telangana)",
        "groups": ["Sedam Subgroup", "Andola Subgroup"]
      },
      "geometry": {
        "type": "Polygon",
        "coordinates": [[[76.3,16.2],[77.5,16.4],[77.4,17.4],[76.4,17.2],[76.3,16.2]]]
      }
    },
    {
      "type": "Feature",
      "properties": {
        "name": "Kurnool Supergroup",
        "unit_type": "supergroup",
        "rank_note": "Conventionally ranked as Kurnool Group, unconformably overlying Cuddapah Supergroup",
        "classical_division": "Purana Group",
        "age_min_ma": 900,
        "age_max_ma": 500,
        "age_uncertain": true,
        "region": "Kurnool Basin, Andhra Pradesh (northern part of Cuddapah Basin)",
        "groups": ["Kurnool Group"]
      },
      "geometry": {
        "type": "Polygon",
        "coordinates": [[[78.0,15.3],[79.2,15.5],[79.0,16.2],[77.9,16.0],[78.0,15.3]]]
      }
    }
  ]
}
